[{"OBJECT_NAME":"STARLINK-3683","OBJECT_ID":"2022-083AM","EPOCH":"2026-03-09T12:08:24.815328","MEAN_MOTION":15.08842316,"ECCENTRICITY":0.00014753,"INCLINATION":53.2177,"RA_OF_ASC_NODE":149.9345,"ARG_OF_PERICENTER":118.9772,"MEAN_ANOMALY":241.1369,"EPHEMERIS_TYPE":0,"CLASSIFICATION_TYPE":"U","NORAD_CAT_ID":53167,"ELEMENT_SET_NO":999,"REV_AT_EPOCH":20153,"BSTAR":-7.3409656e-5,"MEAN_MOTION_DOT":-1.456e-5,"MEAN_MOTION_DDOT":0},{"OBJECT_NAME":"UPPER FREE FLYER","OBJECT_ID":"2018-099F","EPOCH":"2026-03-09T16:53:56.769792","MEAN_MOTION":15.10728091,"ECCENTRICITY":0.00115819,"INCLINATION":97.4495,"RA_OF_ASC_NODE":120.4613,"ARG_OF_PERICENTER":289.4209,"MEAN_ANOMALY":70.5769,"EPHEMERIS_TYPE":0,"CLASSIFICATION_TYPE":"U","NORAD_CAT_ID":43763,"ELEMENT_SET_NO":999,"REV_AT_EPOCH":39752,"BSTAR":0.00029221901,"MEAN_MOTION_DOT":4.788e-5,"MEAN_MOTION_DDOT":0}]
